[{"OBJECT_NAME":"STARLINK-11611 [DTC]","OBJECT_ID":"2025-043G","EPOCH":"2025-09-29T03:01:53.503680","MEAN_MOTION":15.70856894,"ECCENTRICITY":0.00010894,"INCLINATION":42.9996,"RA_OF_ASC_NODE":144.4553,"ARG_OF_PERICENTER":281.6096,"MEAN_ANOMALY":78.4649,"EPHEMERIS_TYPE":0,"CLASSIFICATION_TYPE":"U","NORAD_CAT_ID":63138,"ELEMENT_SET_NO":999,"REV_AT_EPOCH":3406,"BSTAR":0.0025326039,"MEAN_MOTION_DOT":0.0033835,"MEAN_MOTION_DDOT":0},{"OBJECT_NAME":"STARLINK-11628 [DTC]","OBJECT_ID":"2025-043H","EPOCH":"2025-09-28T16:28:36.624864","MEAN_MOTION":15.71084899,"ECCENTRICITY":0.00017754,"INCLINATION":42.9987,"RA_OF_ASC_NODE":147.1796,"ARG_OF_PERICENTER":221.4563,"MEAN_ANOMALY":138.617,"EPHEMERIS_TYPE":0,"CLASSIFICATION_TYPE":"U","NORAD_CAT_ID":63139,"ELEMENT_SET_NO":999,"REV_AT_EPOCH":3399,"BSTAR":0.0029197436,"MEAN_MOTION_DOT":0.00396696,"MEAN_MOTION_DDOT":0},{"OBJECT_NAME":"STARLINK-11607 [DTC]","OBJECT_ID":"2025-043J","EPOCH":"2025-09-29T01:15:02.005056","MEAN_MOTION":15.70911396,"ECCENTRICITY":0.00019481,"INCLINATION":42.998,"RA_OF_ASC_NODE":144.7514,"ARG_OF_PERICENTER":230.3402,"MEAN_ANOMALY":129.7294,"EPHEMERIS_TYPE":0,"CLASSIFICATION_TYPE":"U","NORAD_CAT_ID":63140,"ELEMENT_SET_NO":999,"REV_AT_EPOCH":3405,"BSTAR":0.0019784554,"MEAN_MOTION_DOT":0.00262379,"MEAN_MOTION_DDOT":0},{"OBJECT_NAME":"STARLINK-11522 [DTC]","OBJECT_ID":"2025-043K","EPOCH":"2025-09-28T20:47:59.474112","MEAN_MOTION":15.70982426,"ECCENTRICITY":0.00022028,"INCLINATION":42.9992,"RA_OF_ASC_NODE":145.9442,"ARG_OF_PERICENTER":270.9294,"MEAN_ANOMALY":89.1321,"EPHEMERIS_TYPE":0,"CLASSIFICATION_TYPE":"U","NORAD_CAT_ID":63141,"ELEMENT_SET_NO":999,"REV_AT_EPOCH":3384,"BSTAR":0.0022084975,"MEAN_MOTION_DOT":0.00294983,"MEAN_MOTION_DDOT":0},{"OBJECT_NAME":"STARLINK-11503 [DTC]","OBJECT_ID":"2025-043L","EPOCH":"2025-09-29T02:31:16.579200","MEAN_MOTION":15.70861311,"ECCENTRICITY":0.00016054,"INCLINATION":42.9982,"RA_OF_ASC_NODE":144.2831,"ARG_OF_PERICENTER":255.3447,"MEAN_ANOMALY":104.7243,"EPHEMERIS_TYPE":0,"CLASSIFICATION_TYPE":"U","NORAD_CAT_ID":63142,"ELEMENT_SET_NO":999,"REV_AT_EPOCH":3388,"BSTAR":0.002526279,"MEAN_MOTION_DOT":0.00337526,"MEAN_MOTION_DDOT":0},{"OBJECT_NAME":"STARLINK-11579 [DTC]","OBJECT_ID":"2025-043M","EPOCH":"2025-09-29T01:07:23.285856","MEAN_MOTION":15.70957226,"ECCENTRICITY":0.00020077,"INCLINATION":42.9997,"RA_OF_ASC_NODE":144.7084,"ARG_OF_PERICENTER":268.83,"MEAN_ANOMALY":91.2337,"EPHEMERIS_TYPE":0,"CLASSIFICATION_TYPE":"U","NORAD_CAT_ID":63143,"ELEMENT_SET_NO":999,"REV_AT_EPOCH":3393,"BSTAR":0.0026962542,"MEAN_MOTION_DOT":0.00362835,"MEAN_MOTION_DDOT":0},{"OBJECT_NAME":"STARLINK-11581 [DTC]","OBJECT_ID":"2025-043N","EPOCH":"2025-09-29T06:00:02.000160","MEAN_MOTION":15.70841499,"ECCENTRICITY":0.00016348,"INCLINATION":43.0003,"RA_OF_ASC_NODE":143.8573,"ARG_OF_PERICENTER":266.8999,"MEAN_ANOMALY":13.4653,"EPHEMERIS_TYPE":0,"CLASSIFICATION_TYPE":"U","NORAD_CAT_ID":63144,"ELEMENT_SET_NO":999,"REV_AT_EPOCH":594,"BSTAR":-4.1877101e-5,"MEAN_MOTION_DOT":-5.819e-5,"MEAN_MOTION_DDOT":0},{"OBJECT_NAME":"STARLINK-32949","OBJECT_ID":"2025-043P","EPOCH":"2025-09-29T03:34:56.173728","MEAN_MOTION":15.27636236,"ECCENTRICITY":0.00016109,"INCLINATION":43.0063,"RA_OF_ASC_NODE":208.7967,"ARG_OF_PERICENTER":261.1918,"MEAN_ANOMALY":98.8751,"EPHEMERIS_TYPE":0,"CLASSIFICATION_TYPE":"U","NORAD_CAT_ID":63145,"ELEMENT_SET_NO":999,"REV_AT_EPOCH":3322,"BSTAR":0.0017828359,"MEAN_MOTION_DOT":0.0004921,"MEAN_MOTION_DDOT":0},{"OBJECT_NAME":"STARLINK-32952","OBJECT_ID":"2025-043Q","EPOCH":"2025-09-29T06:01:08.804640","MEAN_MOTION":15.27620857,"ECCENTRICITY":0.00012062,"INCLINATION":43.0011,"RA_OF_ASC_NODE":214.7539,"ARG_OF_PERICENTER":321.0081,"MEAN_ANOMALY":39.0683,"EPHEMERIS_TYPE":0,"CLASSIFICATION_TYPE":"U","NORAD_CAT_ID":63146,"ELEMENT_SET_NO":999,"REV_AT_EPOCH":3322,"BSTAR":0.0018600386,"MEAN_MOTION_DOT":0.00051343,"MEAN_MOTION_DDOT":0},{"OBJECT_NAME":"STARLINK-32936","OBJECT_ID":"2025-043R","EPOCH":"2025-09-29T06:04:51.081600","MEAN_MOTION":15.27632201,"ECCENTRICITY":0.00016491,"INCLINATION":43.0009,"RA_OF_ASC_NODE":214.7895,"ARG_OF_PERICENTER":259.2564,"MEAN_ANOMALY":100.8102,"EPHEMERIS_TYPE":0,"CLASSIFICATION_TYPE":"U","NORAD_CAT_ID":63147,"ELEMENT_SET_NO":999,"REV_AT_EPOCH":3259,"BSTAR":0.0016423498,"MEAN_MOTION_DOT":0.00045282,"MEAN_MOTION_DDOT":0},{"OBJECT_NAME":"STARLINK-32937","OBJECT_ID":"2025-043S","EPOCH":"2025-09-29T04:32:05.565120","MEAN_MOTION":15.27621938,"ECCENTRICITY":0.00016054,"INCLINATION":42.9993,"RA_OF_ASC_NODE":208.2361,"ARG_OF_PERICENTER":263.1257,"MEAN_ANOMALY":96.9412,"EPHEMERIS_TYPE":0,"CLASSIFICATION_TYPE":"U","NORAD_CAT_ID":63148,"ELEMENT_SET_NO":999,"REV_AT_EPOCH":3266,"BSTAR":0.0016750645,"MEAN_MOTION_DOT":0.00046181,"MEAN_MOTION_DDOT":0},{"OBJECT_NAME":"STARLINK-32939","OBJECT_ID":"2025-043T","EPOCH":"2025-09-29T04:17:17.663424","MEAN_MOTION":15.27635282,"ECCENTRICITY":7.268e-5,"INCLINATION":42.995,"RA_OF_ASC_NODE":208.1575,"ARG_OF_PERICENTER":81.7884,"MEAN_ANOMALY":278.305,"EPHEMERIS_TYPE":0,"CLASSIFICATION_TYPE":"U","NORAD_CAT_ID":63149,"ELEMENT_SET_NO":999,"REV_AT_EPOCH":3266,"BSTAR":0.0017365212,"MEAN_MOTION_DOT":0.00047915,"MEAN_MOTION_DDOT":0},{"OBJECT_NAME":"STARLINK-32919","OBJECT_ID":"2025-043U","EPOCH":"2025-09-29T04:37:37.914816","MEAN_MOTION":15.27697245,"ECCENTRICITY":0.00028321,"INCLINATION":42.9993,"RA_OF_ASC_NODE":208.262,"ARG_OF_PERICENTER":242.8112,"MEAN_ANOMALY":117.2452,"EPHEMERIS_TYPE":0,"CLASSIFICATION_TYPE":"U","NORAD_CAT_ID":63150,"ELEMENT_SET_NO":999,"REV_AT_EPOCH":3266,"BSTAR":0.002155147,"MEAN_MOTION_DOT":0.00059742,"MEAN_MOTION_DDOT":0},{"OBJECT_NAME":"STARLINK-32876","OBJECT_ID":"2025-043V","EPOCH":"2025-09-29T03:49:31.939680","MEAN_MOTION":15.27628275,"ECCENTRICITY":0.00017026,"INCLINATION":43.0013,"RA_OF_ASC_NODE":208.0144,"ARG_OF_PERICENTER":267.0842,"MEAN_ANOMALY":92.9815,"EPHEMERIS_TYPE":0,"CLASSIFICATION_TYPE":"U","NORAD_CAT_ID":63151,"ELEMENT_SET_NO":999,"REV_AT_EPOCH":3266,"BSTAR":0.0024341691,"MEAN_MOTION_DOT":0.00067435,"MEAN_MOTION_DDOT":0},{"OBJECT_NAME":"STARLINK-32915","OBJECT_ID":"2025-043W","EPOCH":"2025-09-29T06:06:41.559552","MEAN_MOTION":15.27638037,"ECCENTRICITY":0.00019718,"INCLINATION":43.0012,"RA_OF_ASC_NODE":214.749,"ARG_OF_PERICENTER":256.8429,"MEAN_ANOMALY":103.2202,"EPHEMERIS_TYPE":0,"CLASSIFICATION_TYPE":"U","NORAD_CAT_ID":63152,"ELEMENT_SET_NO":999,"REV_AT_EPOCH":3259,"BSTAR":0.0019295371,"MEAN_MOTION_DOT":0.00053315,"MEAN_MOTION_DDOT":0},{"OBJECT_NAME":"STARLINK-11602 [DTC]","OBJECT_ID":"2025-048A","EPOCH":"2025-09-29T02:22:55.989696","MEAN_MOTION":15.70917865,"ECCENTRICITY":0.00015901,"INCLINATION":42.999,"RA_OF_ASC_NODE":214.2304,"ARG_OF_PERICENTER":255.6493,"MEAN_ANOMALY":104.4198,"EPHEMERIS_TYPE":0,"CLASSIFICATION_TYPE":"U","NORAD_CAT_ID":63183,"ELEMENT_SET_NO":999,"REV_AT_EPOCH":3272,"BSTAR":0.0013150514,"MEAN_MOTION_DOT":0.00172399,"MEAN_MOTION_DDOT":0},{"OBJECT_NAME":"STARLINK-11617 [DTC]","OBJECT_ID":"2025-048B","EPOCH":"2025-09-29T05:18:25.381440","MEAN_MOTION":15.70913461,"ECCENTRICITY":9.439e-5,"INCLINATION":43,"RA_OF_ASC_NODE":213.4198,"ARG_OF_PERICENTER":333.5331,"MEAN_ANOMALY":26.5489,"EPHEMERIS_TYPE":0,"CLASSIFICATION_TYPE":"U","NORAD_CAT_ID":63184,"ELEMENT_SET_NO":999,"REV_AT_EPOCH":3312,"BSTAR":0.0032483127,"MEAN_MOTION_DOT":0.00440609,"MEAN_MOTION_DDOT":0},{"OBJECT_NAME":"STARLINK-11618 [DTC]","OBJECT_ID":"2025-048C","EPOCH":"2025-09-29T04:32:32.382816","MEAN_MOTION":15.70915537,"ECCENTRICITY":0.00012445,"INCLINATION":42.9984,"RA_OF_ASC_NODE":213.1639,"ARG_OF_PERICENTER":281.2483,"MEAN_ANOMALY":78.8244,"EPHEMERIS_TYPE":0,"CLASSIFICATION_TYPE":"U","NORAD_CAT_ID":63185,"ELEMENT_SET_NO":999,"REV_AT_EPOCH":3311,"BSTAR":0.0020364638,"MEAN_MOTION_DOT":0.00270396,"MEAN_MOTION_DDOT":0},{"OBJECT_NAME":"STARLINK-11646 [DTC]","OBJECT_ID":"2025-048D","EPOCH":"2025-09-28T05:23:51.521568","MEAN_MOTION":15.70900863,"ECCENTRICITY":0.00014185,"INCLINATION":42.9989,"RA_OF_ASC_NODE":218.8261,"ARG_OF_PERICENTER":284.0017,"MEAN_ANOMALY":76.0693,"EPHEMERIS_TYPE":0,"CLASSIFICATION_TYPE":"U","NORAD_CAT_ID":63186,"ELEMENT_SET_NO":999,"REV_AT_EPOCH":3297,"BSTAR":0.0024442743,"MEAN_MOTION_DOT":0.00326666,"MEAN_MOTION_DDOT":0},{"OBJECT_NAME":"STARLINK-11622 [DTC]","OBJECT_ID":"2025-048E","EPOCH":"2025-09-29T05:33:41.940288","MEAN_MOTION":15.70970416,"ECCENTRICITY":0.00017823,"INCLINATION":42.9996,"RA_OF_ASC_NODE":213.5038,"ARG_OF_PERICENTER":268.8511,"MEAN_ANOMALY":91.2152,"EPHEMERIS_TYPE":0,"CLASSIFICATION_TYPE":"U","NORAD_CAT_ID":63187,"ELEMENT_SET_NO":999,"REV_AT_EPOCH":3312,"BSTAR":0.0030776976,"MEAN_MOTION_DOT":0.00417221,"MEAN_MOTION_DDOT":0},{"OBJECT_NAME":"STARLINK-11642 [DTC]","OBJECT_ID":"2025-048F","EPOCH":"2025-09-28T21:25:18.912000","MEAN_MOTION":15.71053654,"ECCENTRICITY":0.00017125,"INCLINATION":42.9984,"RA_OF_ASC_NODE":215.2494,"ARG_OF_PERICENTER":211.5453,"MEAN_ANOMALY":148.5312,"EPHEMERIS_TYPE":0,"CLASSIFICATION_TYPE":"U","NORAD_CAT_ID":63188,"ELEMENT_SET_NO":999,"REV_AT_EPOCH":3307,"BSTAR":0.0028707264,"MEAN_MOTION_DOT":0.0038916,"MEAN_MOTION_DDOT":0},{"OBJECT_NAME":"STARLINK-11639 [DTC]","OBJECT_ID":"2025-048G","EPOCH":"2025-09-29T06:19:23.476224","MEAN_MOTION":15.70831608,"ECCENTRICITY":0.00013404,"INCLINATION":42.9992,"RA_OF_ASC_NODE":212.8645,"ARG_OF_PERICENTER":292.4018,"MEAN_ANOMALY":67.6708,"EPHEMERIS_TYPE":0,"CLASSIFICATION_TYPE":"U","NORAD_CAT_ID":63189,"ELEMENT_SET_NO":999,"REV_AT_EPOCH":3313,"BSTAR":0.002330228,"MEAN_MOTION_DOT":0.00309864,"MEAN_MOTION_DDOT":0},{"OBJECT_NAME":"STARLINK-11637 [DTC]","OBJECT_ID":"2025-048H","EPOCH":"2025-09-28T20:25:39.065376","MEAN_MOTION":15.70893124,"ECCENTRICITY":9.742e-5,"INCLINATION":42.998,"RA_OF_ASC_NODE":215.8103,"ARG_OF_PERICENTER":245.475,"MEAN_ANOMALY":114.6016,"EPHEMERIS_TYPE":0,"CLASSIFICATION_TYPE":"U","NORAD_CAT_ID":63190,"ELEMENT_SET_NO":999,"REV_AT_EPOCH":3306,"BSTAR":0.002475491,"MEAN_MOTION_DOT":0.00330914,"MEAN_MOTION_DDOT":0}]
